OBJECT_NAME,OBJECT_ID,EPOCH,MEAN_MOTION,ECCENTRICITY,INCLINATION,RA_OF_ASC_NODE,ARG_OF_PERICENTER,MEAN_ANOMALY,EPHEMERIS_TYPE,CLASSIFICATION_TYPE,NORAD_CAT_ID,ELEMENT_SET_NO,REV_AT_EPOCH,BSTAR,MEAN_MOTION_DOT,MEAN_MOTION_DDOT
STARLINK-37889,2026-133AE,2026-07-07T18:00:02.998944,15.49316343,.000111,53.1600,220.2290,94.2289,244.8249,0,U,69536,999,517,-.15145E-3,-.8864E-4,0
2026-134A,2026-134A,2026-07-07T19:22:03.635328,15.09416081,.0015477,97.7002,258.9915,196.2635,163.8099,0,U,69538,999,342,.25955E-3,.4095E-4,0
2026-134B,2026-134B,2026-07-07T17:43:13.696608,15.09572328,.001557,97.6978,258.9211,198.9087,161.1565,0,U,69539,999,340,.2433E-3,.3851E-4,0
2026-134C,2026-134C,2026-07-07T17:42:32.904576,15.09605084,.0014989,97.6984,258.9233,200.0405,160.0237,0,U,69540,999,340,.25673E-3,.4071E-4,0
2026-134D,2026-134D,2026-07-07T17:41:18.826080,15.09662410,.001604,97.7023,258.9354,199.7680,160.2929,0,U,69541,999,340,.24193E-3,.3839E-4,0
2026-134E,2026-134E,2026-07-07T17:40:50.471328,15.09684104,.001577,97.7042,258.9411,200.4346,159.6254,0,U,69542,999,340,.24017E-3,.3813E-4,0
2026-134F,2026-134F,2026-07-07T17:39:51.280416,15.09730072,.0015044,97.6994,258.9287,202.0634,157.9949,0,U,69543,999,340,.24142E-3,.3837E-4,0
2026-134G,2026-134G,2026-07-07T19:13:29.105184,15.09815260,.0015492,97.7040,259.0094,202.6000,157.4548,0,U,69544,999,341,.23364E-3,.372E-4,0
2026-134H,2026-134H,2026-07-07T19:12:03.711744,15.09881969,.0015324,97.7024,259.0067,203.8325,156.2195,0,U,69545,999,340,.23133E-3,.369E-4,0
STARLINK-37880,2026-135A,2026-07-07T18:00:02.998944,15.69364058,.0001755,97.2842,216.9149,72.1313,18.8961,0,U,69546,999,461,-.24575E-1,-.2508471E-1,0
STARLINK-37881,2026-135B,2026-07-07T18:55:45.670656,15.79134681,.0001233,97.2838,216.9775,26.1011,334.0318,0,U,69547,999,351,.1116E-2,.20265E-2,0
STARLINK-37265,2026-135C,2026-07-07T00:40:39.588672,15.80917150,.00016055,97.2837,216.1747,108.8114,251.3329,0,U,69548,999,339,.11761157E-2,.232313E-2,0
STARLINK-37871,2026-135D,2026-07-07T00:39:19.257408,15.80865436,.00011017,97.2844,216.1764,119.9823,240.1554,0,U,69549,999,339,.58732992E-3,.114098E-2,0
STARLINK-37865,2026-135E,2026-07-07T18:51:32.751072,15.78869749,.0001771,97.2826,216.9810,172.8789,187.2503,0,U,69550,999,351,-.24344E-2,-.407707E-2,0
STARLINK-37862,2026-135F,2026-07-07T00:33:12.511008,15.80944357,.00011119,97.2844,216.1821,139.1577,220.9775,0,U,69551,999,339,.17330236E-2,.347416E-2,0
STARLINK-37861,2026-135G,2026-07-07T18:00:02.998944,15.79304857,.0002041,97.2842,216.9561,102.6325,79.3979,0,U,69552,999,461,-.15448E-1,-.2388848E-1,0
STARLINK-37859,2026-135H,2026-07-07T11:07:12.161280,15.80951693,.0001143,97.2845,216.6551,51.9793,308.1578,0,U,69553,999,346,.17946E-2,.360435E-2,0
STARLINK-37860,2026-135J,2026-07-07T00:28:43.355136,15.80952746,.00008532,97.2848,216.1878,124.6346,235.5003,0,U,69554,999,339,.12990455E-2,.257787E-2,0
STARLINK-37858,2026-135K,2026-07-07T15:37:31.476000,15.81157135,.0009471,97.2852,216.8591,290.0646,69.9603,0,U,69555,999,349,.11796E-2,.236271E-2,0
STARLINK-37927,2026-135L,2026-07-07T00:25:45.770304,15.80866086,.00010848,97.2851,216.1903,58.4844,301.6530,0,U,69556,999,339,.780815E-3,.152409E-2,0
STARLINK-37929,2026-135M,2026-07-07T18:00:02.998944,15.74205437,.0001737,97.2847,216.9590,85.3461,108.3807,0,U,69557,999,461,-.19952E-1,-.2447338E-1,0
STARLINK-37954,2026-135N,2026-07-07T18:00:02.998944,15.74053224,.0001833,97.2848,216.9618,89.9189,109.7965,0,U,69558,999,461,-.20213E-1,-.2460722E-1,0
STARLINK-37958,2026-135P,2026-07-07T10:57:14.517792,15.81197842,.00008161,97.2854,216.6654,105.5963,254.5396,0,U,69559,999,346,.18839808E-2,.383711E-2,0
STARLINK-37950,2026-135Q,2026-07-07T18:00:02.998944,15.81356259,.0001345,97.2850,216.9774,115.0909,115.2559,0,U,69560,999,461,-.10879E-1,-.1871708E-1,0
STARLINK-37952,2026-135R,2026-07-07T18:31:28.695360,15.78261368,.0000548,97.2845,217.0013,71.6183,288.5144,0,U,69561,999,351,.10225E-2,.178046E-2,0
STARLINK-37935,2026-135S,2026-07-07T18:00:02.998944,15.73254969,.0001766,97.2848,216.9719,87.3301,135.7266,0,U,69562,999,461,-.20935E-1,-.2461661E-1,0
STARLINK-37936,2026-135T,2026-07-07T18:00:02.998944,15.74899654,.0001626,97.2850,216.9919,90.9724,179.3906,0,U,69563,999,461,-.193E-1,-.2441164E-1,0
STARLINK-37932,2026-135U,2026-07-07T10:43:21.493056,15.80966338,.00016265,97.2843,216.6781,148.0860,212.0507,0,U,69564,999,346,.20179339E-2,.407804E-2,0
STARLINK-37916,2026-135V,2026-07-07T10:42:32.641632,15.81059901,.00013021,97.2852,216.6790,111.2549,248.8859,0,U,69565,999,346,.15591173E-2,.312933E-2,0
