STARLINK-37889          
1 69536U 26133AE  26188.75003471 -.00008864  00000+0 -15145-3 0  9992
2 69536  53.1600 220.2290 0001110  94.2289 244.8249 15.49316343  5175
2026-134A               
1 69538U 26134A   26188.80698652  .00004095  00000+0  25955-3 0  9992
2 69538  97.7002 258.9915 0015477 196.2635 163.8099 15.09416081  3423
2026-134B               
1 69539U 26134B   26188.73835297  .00003851  00000+0  24330-3 0  9998
2 69539  97.6978 258.9211 0015570 198.9087 161.1565 15.09572328  3402
2026-134C               
1 69540U 26134C   26188.73788084  .00004071  00000+0  25673-3 0  9997
2 69540  97.6984 258.9233 0014989 200.0405 160.0237 15.09605084  3407
2026-134D               
1 69541U 26134D   26188.73702345  .00003839  00000+0  24193-3 0  9991
2 69541  97.7023 258.9354 0016040 199.7680 160.2929 15.09662410  3402
2026-134E               
1 69542U 26134E   26188.73669527  .00003813  00000+0  24017-3 0  9993
2 69542  97.7042 258.9411 0015770 200.4346 159.6254 15.09684104  3403
2026-134F               
1 69543U 26134F   26188.73601019  .00003837  00000+0  24142-3 0  9991
2 69543  97.6994 258.9287 0015044 202.0634 157.9949 15.09730072  3400
2026-134G               
1 69544U 26134G   26188.80103131  .00003720  00000+0  23364-3 0  9998
2 69544  97.7040 259.0094 0015492 202.6000 157.4548 15.09815260  3416
2026-134H               
1 69545U 26134H   26188.80004296  .00003690  00000+0  23133-3 0  9991
2 69545  97.7024 259.0067 0015324 203.8325 156.2195 15.09881969  3409
STARLINK-37880          
1 69546U 26135A   26188.75003471 -.02508471  00000+0 -24575-1 0  9991
2 69546  97.2842 216.9149 0001755  72.1313  18.8961 15.69364058  4612
STARLINK-37881          
1 69547U 26135B   26188.78872304  .00202650  00000+0  11160-2 0  9997
2 69547  97.2838 216.9775 0001233  26.1011 334.0318 15.79134681  3513
STARLINK-37265          
1 69548U 26135C   26188.02823598  .00232313  00000+0  11761-2 0  9992
2 69548  97.2837 216.1747 0001605 108.8114 251.3329 15.80917150  3390
STARLINK-37871          
1 69549U 26135D   26188.02730622  .00114098  00000+0  58733-3 0  9998
2 69549  97.2844 216.1764 0001101 119.9823 240.1554 15.80865436  3394
STARLINK-37865          
1 69550U 26135E   26188.78579573 -.00407707  00000+0 -24344-2 0  9993
2 69550  97.2826 216.9810 0001771 172.8789 187.2503 15.78869749  3515
STARLINK-37862          
1 69551U 26135F   26188.02306147  .00347416  00000+0  17330-2 0  9991
2 69551  97.2844 216.1821 0001111 139.1577 220.9775 15.80944357  3393
STARLINK-37861          
1 69552U 26135G   26188.75003471 -.02388848  00000+0 -15448-1 0  9991
2 69552  97.2842 216.9561 0002041 102.6325  79.3979 15.79304857  4611
STARLINK-37859          
1 69553U 26135H   26188.46333520  .00360435  00000+0  17946-2 0  9995
2 69553  97.2845 216.6551 0001143  51.9793 308.1578 15.80951693  3466
STARLINK-37860          
1 69554U 26135J   26188.01994624  .00257787  00000+0  12990-2 0  9994
2 69554  97.2848 216.1878 0000853 124.6346 235.5003 15.80952746  3394
STARLINK-37858          
1 69555U 26135K   26188.65105875  .00236271  00000+0  11796-2 0  9995
2 69555  97.2852 216.8591 0009471 290.0646  69.9603 15.81157135  3491
STARLINK-37927          
1 69556U 26135L   26188.01789086  .00152409  00000+0  78081-3 0  9999
2 69556  97.2851 216.1903 0001084  58.4844 301.6530 15.80866086  3394
STARLINK-37929          
1 69557U 26135M   26188.75003471 -.02447338  00000+0 -19952-1 0  9990
2 69557  97.2847 216.9590 0001737  85.3461 108.3807 15.74205437  4614
STARLINK-37954          
1 69558U 26135N   26188.75003471 -.02460722  00000+0 -20213-1 0  9995
2 69558  97.2848 216.9618 0001833  89.9189 109.7965 15.74053224  4616
STARLINK-37958          
1 69559U 26135P   26188.45641803  .00383711  00000+0  18840-2 0  9992
2 69559  97.2854 216.6654 0000816 105.5963 254.5396 15.81197842  3468
STARLINK-37950          
1 69560U 26135Q   26188.75003471 -.01871708  00000+0 -10879-1 0  9994
2 69560  97.2850 216.9774 0001345 115.0909 115.2559 15.81356259  4617
STARLINK-37952          
1 69561U 26135R   26188.77185990  .00178046  00000+0  10225-2 0  9992
2 69561  97.2845 217.0013 0000548  71.6183 288.5144 15.78261368  3519
STARLINK-37935          
1 69562U 26135S   26188.75003471 -.02461661  00000+0 -20935-1 0  9994
2 69562  97.2848 216.9719 0001766  87.3301 135.7266 15.73254969  4617
STARLINK-37936          
1 69563U 26135T   26188.75003471 -.02441164  00000+0 -19300-1 0  9995
2 69563  97.2850 216.9919 0001626  90.9724 179.3906 15.74899654  4619
STARLINK-37932          
1 69564U 26135U   26188.44677654  .00407804  00000+0  20179-2 0  9998
2 69564  97.2843 216.6781 0001626 148.0860 212.0507 15.80966338  3467
STARLINK-37916          
1 69565U 26135V   26188.44621113  .00312933  00000+0  15591-2 0  9998
2 69565  97.2852 216.6790 0001302 111.2549 248.8859 15.81059901  3462
